idaddress,street_name,street_number,postal_code,country,city
5YP4T9A8,Hollow Ridge,3,17670,China,Lizhai
2AV4S6Z7,Talisman,34,37305,Portugal,Bombarral
1HX2H6W0,Stoughton,24283,86470,Philippines,BaÃ±ga
7LX2O8J8,American,1,89623,Mexico,Buenavista
1QO4T4B9,La Follette,2526,20225,Poland,MÄ™tkÃ³w
4UV0Z9J5,Mccormick,57,81622,Indonesia,Sumberpitu
3XG1C6I2,Main,7,94723,Portugal,Laveiras
7IU6P6B3,Forster,79,63520,Colombia,Zaragoza
7EG0Z3V0,Kinsman,66,36705,Democratic Republic of the Congo,Bolobo
9QK6U5F8,Packers,16240,36204,Philippines,Santa Monica
4PV5R5M9,Pleasure,46315,65286,China,Luobei
4RU8F6I4,Waywood,13,89231,Brazil,Paraty
5RE3Y2B3,Paget,72279,72808,Ukraine,Bilozerka
3VU8O9H6,Luster,3140,46573,United States,Houston
4SW2U8Y0,Becker,4030,65315,France,Sarlat-la-CanÃ©da
4VZ8W8Q0,Pankratz,337,36864,China,Nancha
8VB0B5F8,Grover,73975,43544,Kenya,Butere
4GJ5Q4C4,Springview,58056,89330,Portugal,Belverde
5GC6Y2V5,Burning Wood,685,64093,Philippines,Calape
3JE5O1I4,High Crossing,8,83391,Indonesia,Gasri
9PJ2Q5D7,Talmadge,850,447,Russia,Dukhovnitskoye
6SR7K0Q5,Surrey,4,69066,United States,Houston
2IO7G0G0,Butterfield,2,19693,Croatia,Gradac
9JR3A2V9,Waywood,4,86524,Indonesia,Sidomulyo
7WM7Z2K4,Gulseth,108,44181,China,Xiangxiang
1PJ8Q3D4,David,78468,34381,Sweden,Trelleborg
1BX5W2K4,Birchwood,93350,74073,Sweden,Halmstad
5IX6T2N1,4th,7338,39871,China,Xiqi
5SO7N4B8,Golf View,1766,27996,Sweden,Tanumshede
5PE7F1U5,Merchant,6276,95252,Philippines,Tucuran
3ES3G1V1,Bunker Hill,1,77907,Poland,WrzeÅ›nia
6FK4V2M3,Knutson,9,67721,China,Wufeng
4VY9A6Y0,Bluestem,89,41533,Iran,ZanjÄn
7YY0D1T8,Daystar,9780,10841,Russia,Mendeleyevsk
7QU8Z3R7,Morrow,574,78545,China,Jiabeiyan
0NA3Y2W1,Southridge,35750,3125,China,Liji
6CR8H3T3,Oxford,77052,61151,China,Linggou
1VW1N9M6,Old Shore,9,13192,Greece,Ãyios VasÃ­lios
7EU0N8U0,Debs,2,74075,Greece,Ãno KastrÃ­tsion
2VW3Q6E2,Golden Leaf,944,83314,Argentina,Cruz de los Milagros
2RB9M4N9,Sage,2,52215,Bulgaria,Medovene
5JI1O7O1,Aberg,93,69633,Japan,Hasuda
5US0O8G0,Continental,50564,627,South Korea,Enjitsu
7VX8P4J4,Huxley,8,82485,Malaysia,Kuala Lumpur
2OW3Z9E1,Debs,5948,72693,Malawi,Makata
1OM2Y8I1,Luster,177,23407,Brazil,SabinÃ³polis
4JK2H2D9,Grover,0,79453,China,Baishan
7IE4N8A0,Armistice,77648,66675,China,Xianyan
8BQ4R4D2,Sage,2,9295,Indonesia,Paya Dapur
6EV3A6J3,Becker,57,28544,Germany,Bremen
2BL1U9B8,Aberg,1406,88440,Venezuela,Santa MarÃ­a de Caparo
3XM0Y0I6,Melrose,3,16384,Cameroon,Dschang
6CI9H5L2,Lien,16520,35902,France,Wasquehal
8TW4U8Q1,Vidon,12,41627,Portugal,Riba de Ave
0LV0Q1E1,Schmedeman,6,94920,Bulgaria,Kilifarevo
0QA2P8M6,Di Loreto,3,31994,Indonesia,Krajan Dukuhseti
8RE0M2T5,Declaration,0,21683,Indonesia,Selorejo
0OR1F7M2,Mccormick,54990,8671,Kyrgyzstan,Lebedinovka
6XU6E2W8,Arapahoe,914,89460,Brazil,Vera Cruz
2FM9O9U3,Dennis,186,36814,China,Xinjiebu
8FW6T2T2,Macpherson,915,59743,Philippines,Jovellar
2LB7Y1Q0,Aberg,65,87489,Russia,Zverevo
4IT8P0F3,Shelley,44336,8148,Croatia,Vrbovec
1AM5N4X4,Lakewood,3914,61743,United States,Toledo
7RB2S8G1,Shelley,4,10976,China,Lingyuan
4QI4W5K2,New Castle,27392,89332,Poland,PolaÅ„czyk
9HO1P1K4,Anhalt,7,60500,Philippines,Rizal
7ZE9F2C5,Marquette,2593,21042,Philippines,Unidad
2UE6T7E4,Fairfield,1,10374,Brazil,Nova Prata
9HK2A5Q3,Fisk,232,39685,Philippines,San Pedro Apartado
7KA0F4V0,Cherokee,37,88045,China,Sanxi
0KG0H1M1,Thompson,6982,39225,Wallis and Futuna,Mata-Utu
7FX6G2T6,8th,7,63952,China,Wanmingang
4AF4G7O6,Granby,88,34770,Peru,Bajo Naranjillo
3XE4R4H9,Banding,159,36685,Russia,Rudnya
5SE8F4S3,Londonderry,97,242,Peru,Cachachi
9FQ4L0L9,Upham,6,33887,Indonesia,Krajanpagowan
9IJ9Q0S2,Gateway,30,31214,United States,Pasadena
1AS7O3I1,Anniversary,361,994,China,Binhailu
0JE7M1N5,Ludington,2538,62569,Chile,Teno
5BL3H1V1,Anderson,8,20964,Portugal,Santo Aleixo
3EJ5Z7O4,Northland,4710,71992,China,Housuo
9DR0W0G7,Tennyson,793,94551,Indonesia,Sarimukti Kaler
5ZZ6P3M5,Meadow Ridge,50,20057,Philippines,Lamak
3RD5P4M5,Redwing,65329,30999,Sweden,Flen
8NW9E7G0,Alpine,89,2211,Russia,Usogorsk
4AG8O5A0,Mcguire,74620,67369,Brazil,Nova Lima
9XF7K9K4,Gulseth,11,56510,Namibia,Katima Mulilo
5GB9R4C0,Russell,0,76310,Portugal,Amieirinha
0LH4K5T1,Hoepker,98643,34719,Colombia,MompÃ³s
1JN8J7U6,Jenna,0,17184,Portugal,Carcavelos
2FW5N9T0,Green,275,60535,United States,Montgomery
4MO5K3Q4,Moland,47198,67911,China,Huangshi
2MN2B1E9,Artisan,1990,31139,Honduras,San Marcos
5OJ4E4T0,Mallard,4,82637,Afghanistan,KhÅshÄmand
6PB7B1U4,Blaine,3205,56158,Poland,SzamotuÅ‚y
1TR1V3N3,Sloan,56229,1058,China,LÃ¼meng
9MT2H3I5,Fisk,58591,76018,Yemen,Sa'dah
6LP2T6Q1,Mallard,2324,62908,Brazil,Mendes
3LT0U9I9,Colorado,12,32353,China,Baiyang
6RA2B8V1,Westerfield,4956,18402,Uganda,Ntoroko
1VD7G8H0,Tennyson,82,80060,Georgia,Akhaldaba
5AY9L9E6,Sullivan,79453,95452,Canada,Two Hills
6GA6X9J0,Westridge,1472,27455,Russia,Korsakovo
2RW5E8G1,5th,70,43876,Portugal,Junqueiro
7ZZ1F7T0,Trailsway,184,38935,China,Ligonggang
8DQ8O4E7,Amoth,52,26658,Japan,ÅŒi
8AU2J6X1,Little Fleur,30,77740,Norway,Oslo
5RB1M4L2,Vermont,16,18848,Russia,Odoyev
0IQ1G6H2,Cascade,8523,43725,China,Lingyuan
5AN5K6S7,Merrick,37,88395,Indonesia,Siso
8SD5Z3V2,Hallows,0,81050,Indonesia,Weton
7UF9R1X7,Grasskamp,789,14860,China,Zhangguanying
5DE7C4E2,Monument,69603,70404,United Kingdom,Wirral
8KW6M7R2,Tennyson,57,96497,China,Xiangfeng
6CE4T3U8,Milwaukee,328,65752,China,Dajie
1FO6F4L0,Riverside,530,83180,Madagascar,Ambatolampy
8RF7K5V9,Muir,76,45748,France,Massy
6VA5N3X1,Heffernan,49624,6194,China,Tangxing
5LC5L5R8,Lighthouse Bay,304,37562,Armenia,Apaga
4QV6E7L7,Banding,21,27489,Portugal,PÃ³voa do Valado
6ZV0B4Y4,Grayhawk,7,15083,Indonesia,Geser
4CM8H4P4,Lakewood,7,62194,Indonesia,Sonlit
3PE6X2L1,Lindbergh,21,73401,Benin,Tchaourou
9LA4I1Q2,Artisan,8128,83741,China,Daze
1MC7Z6Z0,Portage,71227,61600,Morocco,Nouaseur
8KN8F6I7,Kedzie,570,26554,Vietnam,Thá»‹ Tráº¥n Tam Äiá»‡p
2FO3H2O5,Lerdahl,60530,34208,Panama,Pueblo Viejo
1PY2C9C7,Jay,3,91475,Slovenia,Polzela
9GC3K8J7,International,1737,5164,Ireland,Greystones
0SU1W0V6,Di Loreto,7,71733,China,Huangdu
9YN9B3P3,Carioca,48,96503,China,Yutou
6BC0R7P6,Merrick,2,26522,Chile,Paine
5EX3S3A7,Cody,5,52655,Indonesia,Pasuruan
8YN4U0D8,Nova,81688,42059,United States,New York City
1VN4V8C0,Gale,351,40731,China,Zongzhai
7ED6X9C5,Packers,7393,41518,Brazil,PerdÃµes
7FI2M8J4,2nd,451,66515,Canada,Papineauville
8CG6N6T8,Sutherland,512,62894,United States,Nashville
4UV7U5P1,4th,5564,50960,Tunisia,Biâ€™r al á¸¨ufayy
2ZO3A0Z9,Oneill,7741,86423,Jordan,AÅ£ Å¢afÄ«lah
0LT4U1C5,Canary,93709,86225,Brazil,Barra do GarÃ§as
3IB9H8S8,Old Shore,3628,84633,Tunisia,Al MazzÅ«nah
5DH9K6Q7,Alpine,88,26125,Indonesia,Banjar Triwangsakeliki
3KY9U5M0,Summer Ridge,2776,21450,Egypt,Minyat an NaÅŸr
9EG0P1W3,Mcbride,76286,64242,Ukraine,Obodivka
7UG0B0F7,Ohio,7918,51242,Mexico,Buenavista
3GR2U1S9,Grover,16,21193,Brazil,Juazeiro do Norte
1BL7E1C8,Scoville,4187,73351,China,Lian
0IX9I9W3,Eggendart,4,50495,China,Huangcun
